{
  "type": "FeatureCollection",
  "features": [
    {
      "type": "Feature",
      "properties": {
        "norad_id": 33835,
        "name": "COSMOS 2251 DEB",
        "group": "cosmos-2251-debris",
        "lat": -29.476782196565534,
        "lon": -51.681228568583315,
        "alt_km": 659.9752203478447,
        "timestamp": "2025-12-03T08:58:46.395646+00:00",
        "meta_object_name": "COSMOS 2251 DEB",
        "meta_object_id": "1993-036CC",
        "meta_epoch": "2025-12-02T19:28:26.300064",
        "meta_mean_motion": 14.62061225,
        "meta_eccentricity": 0.0055721,
        "meta_inclination": 74.0555,
        "meta_ra_of_asc_node": 120.095,
        "meta_arg_of_pericenter": 176.3218,
        "meta_mean_anomaly": 313.2995,
        "meta_ephemeris_type": 0,
        "meta_classification_type": "U",
        "meta_norad_cat_id": 33835,
        "meta_element_set_no": 999,
        "meta_rev_at_epoch": 88644,
        "meta_bstar": 0.0016116,
        "meta_mean_motion_dot": 8.252e-05,
        "meta_mean_motion_ddot": 0,
        "tle_line1": "1 33835U 93036CC  25336.81141551  .00008252  00000+0  16116-2 0  9991",
        "tle_line2": "2 33835  74.0555 120.0950 0055721 176.3218 313.2995 14.62061225886446"
      },
      "geometry": {
        "type": "Point",
        "coordinates": [
          -51.681228568583315,
          -29.476782196565534
        ]
      }
    },
    {
      "type": "Feature",
      "properties": {
        "norad_id": 33836,
        "name": "COSMOS 2251 DEB",
        "group": "cosmos-2251-debris",
        "lat": 10.136144110482135,
        "lon": -79.63281477824546,
        "alt_km": 641.3613821388035,
        "timestamp": "2025-12-03T08:58:46.395670+00:00",
        "meta_object_name": "COSMOS 2251 DEB",
        "meta_object_id": "1993-036CD",
        "meta_epoch": "2025-12-03T04:20:54.154176",
        "meta_mean_motion": 14.79306883,
        "meta_eccentricity": 0.0022421,
        "meta_inclination": 73.9973,
        "meta_ra_of_asc_node": 277.8066,
        "meta_arg_of_pericenter": 134.4494,
        "meta_mean_anomaly": 289.2155,
        "meta_ephemeris_type": 0,
        "meta_classification_type": "U",
        "meta_norad_cat_id": 33836,
        "meta_element_set_no": 999,
        "meta_rev_at_epoch": 63947,
        "meta_bstar": 0.0018511,
        "meta_mean_motion_dot": 0.0001383,
        "meta_mean_motion_ddot": 0,
        "tle_line1": "1 33836U 93036CD  25337.18118234  .00013830  00000+0  18511-2 0  9994",
        "tle_line2": "2 33836  73.9973 277.8066 0022421 134.4494 289.2155 14.79306883639479"
      },
      "geometry": {
        "type": "Point",
        "coordinates": [
          -79.63281477824546,
          10.136144110482135
        ]
      }
    },
    {
      "type": "Feature",
      "properties": {
        "norad_id": 33837,
        "name": "COSMOS 2251 DEB",
        "group": "cosmos-2251-debris",
        "lat": -55.79992542755354,
        "lon": -81.81875132122637,
        "alt_km": 716.390587901491,
        "timestamp": "2025-12-03T08:58:46.395682+00:00",
        "meta_object_name": "COSMOS 2251 DEB",
        "meta_object_id": "1993-036CE",
        "meta_epoch": "2025-12-02T23:36:04.521024",
        "meta_mean_motion": 14.50665331,
        "meta_eccentricity": 0.0035629,
        "meta_inclination": 74.0127,
        "meta_ra_of_asc_node": 73.9648,
        "meta_arg_of_pericenter": 297.3027,
        "meta_mean_anomaly": 62.4507,
        "meta_ephemeris_type": 0,
        "meta_classification_type": "U",
        "meta_norad_cat_id": 33837,
        "meta_element_set_no": 999,
        "meta_rev_at_epoch": 88654,
        "meta_bstar": 0.00038597,
        "meta_mean_motion_dot": 1.5e-05,
        "meta_mean_motion_ddot": 0,
        "tle_line1": "1 33837U 93036CE  25336.98338566  .00001500  00000+0  38597-3 0  9992",
        "tle_line2": "2 33837  74.0127  73.9648 0035629 297.3027  62.4507 14.50665331886548"
      },
      "geometry": {
        "type": "Point",
        "coordinates": [
          -81.81875132122637,
          -55.79992542755354
        ]
      }
    },
    {
      "type": "Feature",
      "properties": {
        "norad_id": 33838,
        "name": "COSMOS 2251 DEB",
        "group": "cosmos-2251-debris",
        "lat": -10.527642122058761,
        "lon": -9.598383992824452,
        "alt_km": 738.2352633970258,
        "timestamp": "2025-12-03T08:58:46.395692+00:00",
        "meta_object_name": "COSMOS 2251 DEB",
        "meta_object_id": "1993-036CF",
        "meta_epoch": "2025-12-02T22:40:07.715136",
        "meta_mean_motion": 14.48315324,
        "meta_eccentricity": 0.0027379,
        "meta_inclination": 74.0356,
        "meta_ra_of_asc_node": 168.1564,
        "meta_arg_of_pericenter": 291.3492,
        "meta_mean_anomaly": 180.7284,
        "meta_ephemeris_type": 0,
        "meta_classification_type": "U",
        "meta_norad_cat_id": 33838,
        "meta_element_set_no": 999,
        "meta_rev_at_epoch": 88427,
        "meta_bstar": 0.00048404,
        "meta_mean_motion_dot": 1.791e-05,
        "meta_mean_motion_ddot": 0,
        "tle_line1": "1 33838U 93036CF  25336.94453374  .00001791  00000+0  48404-3 0  9994",
        "tle_line2": "2 33838  74.0356 168.1564 0027379 291.3492 180.7284 14.48315324884275"
      },
      "geometry": {
        "type": "Point",
        "coordinates": [
          -9.598383992824452,
          -10.527642122058761
        ]
      }
    },
    {
      "type": "Feature",
      "properties": {
        "norad_id": 33839,
        "name": "COSMOS 2251 DEB",
        "group": "cosmos-2251-debris",
        "lat": -59.79678877328783,
        "lon": -164.974088829976,
        "alt_km": 641.6318549715825,
        "timestamp": "2025-12-03T08:58:46.395702+00:00",
        "meta_object_name": "COSMOS 2251 DEB",
        "meta_object_id": "1993-036CG",
        "meta_epoch": "2025-12-03T03:25:22.042272",
        "meta_mean_motion": 14.64373974,
        "meta_eccentricity": 0.0084822,
        "meta_inclination": 74.0399,
        "meta_ra_of_asc_node": 224.9194,
        "meta_arg_of_pericenter": 339.2319,
        "meta_mean_anomaly": 177.3871,
        "meta_ephemeris_type": 0,
        "meta_classification_type": "U",
        "meta_norad_cat_id": 33839,
        "meta_element_set_no": 999,
        "meta_rev_at_epoch": 89439,
        "meta_bstar": 0.00040045,
        "meta_mean_motion_dot": 2.197e-05,
        "meta_mean_motion_ddot": 0,
        "tle_line1": "1 33839U 93036CG  25337.14261623  .00002197  00000+0  40045-3 0  9996",
        "tle_line2": "2 33839  74.0399 224.9194 0084822 339.2319 177.3871 14.64373974894390"
      },
      "geometry": {
        "type": "Point",
        "coordinates": [
          -164.974088829976,
          -59.79678877328783
        ]
      }
    },
    {
      "type": "Feature",
      "properties": {
        "norad_id": 33841,
        "name": "COSMOS 2251 DEB",
        "group": "cosmos-2251-debris",
        "lat": -20.874984350415527,
        "lon": 121.55236754974332,
        "alt_km": 784.8688804364456,
        "timestamp": "2025-12-03T08:58:46.395713+00:00",
        "meta_object_name": "COSMOS 2251 DEB",
        "meta_object_id": "1993-036CJ",
        "meta_epoch": "2025-12-02T22:20:11.576256",
        "meta_mean_motion": 14.37835177,
        "meta_eccentricity": 0.002009,
        "meta_inclination": 74.0372,
        "meta_ra_of_asc_node": 296.1018,
        "meta_arg_of_pericenter": 18.7953,
        "meta_mean_anomaly": 48.3548,
        "meta_ephemeris_type": 0,
        "meta_classification_type": "U",
        "meta_norad_cat_id": 33841,
        "meta_element_set_no": 999,
        "meta_rev_at_epoch": 87973,
        "meta_bstar": 0.00033845,
        "meta_mean_motion_dot": 9.96e-06,
        "meta_mean_motion_ddot": 0,
        "tle_line1": "1 33841U 93036CJ  25336.93068954  .00000996  00000+0  33845-3 0  9992",
        "tle_line2": "2 33841  74.0372 296.1018 0020090  18.7953  48.3548 14.37835177879737"
      },
      "geometry": {
        "type": "Point",
        "coordinates": [
          121.55236754974332,
          -20.874984350415527
        ]
      }
    },
    {
      "type": "Feature",
      "properties": {
        "norad_id": 33842,
        "name": "COSMOS 2251 DEB",
        "group": "cosmos-2251-debris",
        "lat": -62.16562053622173,
        "lon": -155.80092981523617,
        "alt_km": 736.3343893245856,
        "timestamp": "2025-12-03T08:58:46.395723+00:00",
        "meta_object_name": "COSMOS 2251 DEB",
        "meta_object_id": "1993-036CK",
        "meta_epoch": "2025-12-03T04:17:37.640832",
        "meta_mean_motion": 14.42662849,
        "meta_eccentricity": 0.0046973,
        "meta_inclination": 74.0334,
        "meta_ra_of_asc_node": 237.3968,
        "meta_arg_of_pericenter": 346.667,
        "meta_mean_anomaly": 13.3241,
        "meta_ephemeris_type": 0,
        "meta_classification_type": "U",
        "meta_norad_cat_id": 33842,
        "meta_element_set_no": 999,
        "meta_rev_at_epoch": 88199,
        "meta_bstar": 0.00044439,
        "meta_mean_motion_dot": 1.471e-05,
        "meta_mean_motion_ddot": 0,
        "tle_line1": "1 33842U 93036CK  25337.17890788  .00001471  00000+0  44439-3 0  9998",
        "tle_line2": "2 33842  74.0334 237.3968 0046973 346.6670  13.3241 14.42662849881997"
      },
      "geometry": {
        "type": "Point",
        "coordinates": [
          -155.80092981523617,
          -62.16562053622173
        ]
      }
    }
  ]
}